{
    "links": {
        "self": "http://www.neowsapp.com/rest/v1/neo/3758256?api_key=iIulBulltgU6a56xZRHN4H3l9WmuAYTsLGpBGhQ2"
    },
    "id": "3758256",
    "neo_reference_id": "3758256",
    "name": "(2016 QN44)",
    "designation": "2016 QN44",
    "nasa_jpl_url": "http://ssd.jpl.nasa.gov/sbdb.cgi?sstr=3758256",
    "absolute_magnitude_h": 22.3,
    "estimated_diameter": {
        "kilometers": {
            "estimated_diameter_min": 0.0921626549,
            "estimated_diameter_max": 0.2060819612
        },
        "meters": {
            "estimated_diameter_min": 92.1626548503,
            "estimated_diameter_max": 206.0819612321
        },
        "miles": {
            "estimated_diameter_min": 0.057267201,
            "estimated_diameter_max": 0.1280533543
        },
        "feet": {
            "estimated_diameter_min": 302.370924539,
            "estimated_diameter_max": 676.1219416887
        }
    },
    "is_potentially_hazardous_asteroid": false,
    "close_approach_data": [
        {
            "close_approach_date": "2016-09-09",
            "close_approach_date_full": "2016-Sep-09 03:43",
            "epoch_date_close_approach": 1473392580000,
            "relative_velocity": {
                "kilometers_per_second": "15.0366863822",
                "kilometers_per_hour": "54132.0709757936",
                "miles_per_hour": "33635.5637682647"
            },
            "miss_distance": {
                "astronomical": "0.0736398888",
                "lunar": "28.6459167432",
                "kilometers": "11016370.511516856",
                "miles": "6845255.2171543728"
            },
            "orbiting_body": "Earth"
        }
    ],
    "orbital_data": {
        "orbit_id": "4",
        "orbit_determination_date": "2017-04-06 08:24:20",
        "first_observation_date": "2016-08-29",
        "last_observation_date": "2016-09-08",
        "data_arc_in_days": 10,
        "observations_used": 87,
        "orbit_uncertainty": "8",
        "minimum_orbit_intersection": ".0334163",
        "jupiter_tisserand_invariant": "4.010",
        "epoch_osculation": "2457631.5",
        "eccentricity": ".514078137959863",
        "semi_major_axis": "1.710832924235796",
        "inclination": "10.02564142613368",
        "ascending_node_longitude": "161.7063539120781",
        "orbital_period": "817.3533107032627",
        "perihelion_distance": ".8313311201842305",
        "perihelion_argument": "252.8217381118022",
        "aphelion_distance": "2.590334728287361",
        "perihelion_time": "2457687.138124731881",
        "mean_anomaly": "335.4944102615266",
        "mean_motion": ".4404460045439234",
        "equinox": "J2000",
        "orbit_class": {
            "orbit_class_type": "APO",
            "orbit_class_description": "Near-Earth asteroid orbits which cross the Earth’s orbit similar to that of 1862 Apollo",
            "orbit_class_range": "a (semi-major axis) > 1.0 AU; q (perihelion) < 1.017 AU"
        }
    },
    "is_sentry_object": false
}